1 42969U 17064A   24035.40636003  .00000083  00000-0  59952-4 0  9999
2 42969  98.7287 336.6467 0001638  78.2149 281.9211 14.19557998327012
